{"spkid": "20672745", "covariance": {"data": [["8.909798766628841E-15", "-1.667344553097627E-14", "2.473188151374667E-12", "-6.693735145285125E-13", "1.964909943877736E-12", "2.880493026236677E-14"], ["-1.667344553097627E-14", "3.124416898878509E-14", "-4.529514339511229E-12", "1.233886811987115E-12", "-3.620760372015142E-12", "-5.159246458662373E-14"], ["2.473188151374667E-12", "-4.529514339511229E-12", "1.265979521428117E-9", "-2.515997614200529E-10", "8.234194836365163E-10", "1.712181916943087E-11"], ["-6.693735145285125E-13", "1.233886811987115E-12", "-2.515997614200529E-10", "9.6995519388312E-9", "-9.781178600995575E-9", "-3.846772746760785E-11"], ["1.964909943877736E-12", "-3.620760372015142E-12", "8.234194836365163E-10", "-9.781178600995575E-9", "1.015001917775746E-8", "4.551663977864746E-11"], ["2.880493026236677E-14", "-5.159246458662373E-14", "1.712181916943087E-11", "-3.846772746760785E-11", "4.551663977864746E-11", "2.065380280928698E-11"]], "elements": [{"units": null, "value": ".5156235410770242", "title": "eccentricity", "name": "e", "sigma": 9.43917303932333e-08, "label": "e"}, {"label": "q", "name": "q", "sigma": 1.76760201936932e-07, "value": ".8940157187549744", "title": "perihelion distance", "units": "au"}, {"sigma": 3.55806059733124e-05, "name": "tp", "units": "TDB", "value": "2457806.617493889457", "title": "time of perihelion passage", "label": "tp"}, {"label": "node", "title": "longitude of the ascending node", "value": "77.97123229871566", "units": "deg", "sigma": 9.8486303305745e-05, "name": "om"}, {"label": "peri", "title": "argument of perihelion", "value": "210.0151337684925", "units": "deg", "name": "w", "sigma": 0.000100747303575617}, {"name": "i", "sigma": 4.54464550974958e-06, "units": "deg", "title": "inclination", "value": "5.527015240719733", "label": "i"}], "labels": ["e", "q", "tp", "node", "peri", "i"], "epoch": "2457836.5"}, "elements": [{"sigma": "9.5167E-8", "name": "e", "units": null, "title": "eccentricity", "value": ".5157941096532142", "label": "e"}, {"value": "1.846453947608756", "title": "semi-major axis", "units": "au", "sigma": "1.4205E-8", "name": "a", "label": "a"}, {"label": "q", "value": ".8940638776862354", "title": "perihelion distance", "units": "au", "name": "q", "sigma": "1.7843E-7"}, {"sigma": "4.5349E-6", "name": "i", "units": "deg", "value": "5.517893323387087", "title": "inclination; angle with respect to x-y ecliptic plane", "label": "i"}, {"units": "deg", "value": "77.89721472473909", "title": "longitude of the ascending node", "sigma": "9.8803E-5", "name": "om", "label": "node"}, {"sigma": ".00010105", "name": "w", "units": "deg", "title": "argument of perihelion", "value": "210.2146559764067", "label": "peri"}, {"label": "M", "sigma": "2.2145E-5", "name": "ma", "units": "deg", "title": "mean anomaly", "value": "253.52545533605"}, {"label": "tp", "title": "time of perihelion passage", "value": "2461471.550016580889", "units": "TDB", "sigma": "5.8781E-5", "name": "tp"}, {"value": "916.4444541847162", "title": "sidereal orbital period", "units": "d", "sigma": "1.0576E-5", "name": "per", "label": "period"}, {"label": "n", "title": "mean motion", "value": ".3928224982497841", "units": "deg/d", "sigma": "4.5331E-9", "name": "n"}, {"title": "aphelion distance", "value": "2.798844017531278", "units": "au", "name": "ad", "sigma": "2.1532E-8", "label": "Q"}], "epoch": "2461200.5"}